{
  "norad_id": 67542,
  "name": "STARLINK-35934",
  "history": [
    {
      "epoch": "2026-03-28T22:07:22.567008Z",
      "apogee_km": 345.5391019427352,
      "perigee_km": 341.8606439323885,
      "latitude_deg": 0.00010489318972129514,
      "longitude_deg": 175.66596486218322,
      "height_km": 347.8621853673457,
      "semi_major_axis_km": 6721.836872937562,
      "eccentricity": 0.00027362,
      "inclination_deg": 97.2858,
      "raan_deg": 333.8453,
      "arg_perigee_deg": 122.8403,
      "mean_anomaly_deg": 237.3127,
      "mean_motion_rev_day": 15.75327335
    },
    {
      "epoch": "2026-03-29T04:13:18.452928Z",
      "apogee_km": 344.68357189577273,
      "perigee_km": 343.21681247043944,
      "latitude_deg": 5.8054024911294385e-05,
      "longitude_deg": 84.19904171086094,
      "height_km": 347.29682996381683,
      "semi_major_axis_km": 6722.087192183106,
      "eccentricity": 0.0001091,
      "inclination_deg": 97.2857,
      "raan_deg": 334.1117,
      "arg_perigee_deg": 104.2008,
      "mean_anomaly_deg": 255.9379,
      "mean_motion_rev_day": 15.75239342
    },
    {
      "epoch": "2026-03-30T04:36:58.623552Z",
      "apogee_km": 345.6592889875192,
      "perigee_km": 342.18667280138834,
      "latitude_deg": -8.831299146960948e-06,
      "longitude_deg": 78.34642707415024,
      "height_km": 348.80867709143916,
      "semi_major_axis_km": 6722.0599808944535,
      "eccentricity": 0.0002583,
      "inclination_deg": 97.2851,
      "raan_deg": 335.1783,
      "arg_perigee_deg": 171.5601,
      "mean_anomaly_deg": 188.5708,
      "mean_motion_rev_day": 15.75248907
    },
    {
      "epoch": "2026-03-30T06:08:28.002624Z",
      "apogee_km": 344.8832223407753,
      "perigee_km": 342.989748681377,
      "latitude_deg": -1.9669781334767319e-07,
      "longitude_deg": 55.477590808893325,
      "height_km": 347.4412289773982,
      "semi_major_axis_km": 6722.073485511076,
      "eccentricity": 0.00014084,
      "inclination_deg": 97.2847,
      "raan_deg": 335.2445,
      "arg_perigee_deg": 110.9405,
      "mean_anomaly_deg": 249.2011,
      "mean_motion_rev_day": 15.7524416
    },
    {
      "epoch": "2026-03-30T15:17:20.891904Z",
      "apogee_km": 344.64564594549756,
      "perigee_km": 342.87818984402656,
      "latitude_deg": -6.262955832553512e-05,
      "longitude_deg": -81.71796884310297,
      "height_km": 347.34037904491356,
      "semi_major_axis_km": 6721.898917894762,
      "eccentricity": 0.00013147,
      "inclination_deg": 97.2849,
      "raan_deg": 335.645,
      "arg_perigee_deg": 117.7683,
      "mean_anomaly_deg": 242.3715,
      "mean_motion_rev_day": 15.75305524
    },
    {
      "epoch": "2026-03-30T22:54:44.554176Z",
      "apogee_km": 345.4540078597729,
      "perigee_km": 341.9891586344529,
      "latitude_deg": -4.3334756002744865e-05,
      "longitude_deg": 163.95336094902117,
      "height_km": 347.51752374867783,
      "semi_major_axis_km": 6721.858583247113,
      "eccentricity": 0.00025773,
      "inclination_deg": 97.2851,
      "raan_deg": 335.978,
      "arg_perigee_deg": 111.3699,
      "mean_anomaly_deg": 248.7841,
      "mean_motion_rev_day": 15.75319703
    },
    {
      "epoch": "2026-03-31T09:35:06.610848Z",
      "apogee_km": 345.39891010660995,
      "perigee_km": 342.5784406157427,
      "latitude_deg": 4.1846903369380556e-06,
      "longitude_deg": 3.8894366664083364,
      "height_km": 346.8276610641412,
      "semi_major_axis_km": 6722.125675361176,
      "eccentricity": 0.00020979,
      "inclination_deg": 97.2854,
      "raan_deg": 336.4443,
      "arg_perigee_deg": 76.636,
      "mean_anomaly_deg": 283.5139,
      "mean_motion_rev_day": 15.75225815
    },
    {
      "epoch": "2026-04-01T11:30:15.924672Z",
      "apogee_km": 345.6508121917723,
      "perigee_km": 342.15400729082467,
      "latitude_deg": 9.889970799887687e-05,
      "longitude_deg": -24.831147473321536,
      "height_km": 345.8396542470893,
      "semi_major_axis_km": 6722.039409741298,
      "eccentricity": 0.0002601,
      "inclination_deg": 97.2867,
      "raan_deg": 337.577,
      "arg_perigee_deg": 45.3925,
      "mean_anomaly_deg": 314.7553,
      "mean_motion_rev_day": 15.75256138
    },
    {
      "epoch": "2026-04-02T10:22:27.086016Z",
      "apogee_km": 345.20277501290366,
      "perigee_km": 342.54811785755646,
      "latitude_deg": -1.3175073628046815e-05,
      "longitude_deg": -7.81686583781013,
      "height_km": 346.35922207112014,
      "semi_major_axis_km": 6722.012446435229,
      "eccentricity": 0.00019746,
      "inclination_deg": 97.2866,
      "raan_deg": 338.577,
      "arg_perigee_deg": 59.0965,
      "mean_anomaly_deg": 301.0494,
      "mean_motion_rev_day": 15.75265616
    },
    {
      "epoch": "2026-04-03T15:20:34.983456Z",
      "apogee_km": 345.40110162113615,
      "perigee_km": 341.90308257760717,
      "latitude_deg": 1.2817896791558995e-05,
      "longitude_deg": -82.27268361579704,
      "height_km": 347.710178449546,
      "semi_major_axis_km": 6721.789092099371,
      "eccentricity": 0.0002602,
      "inclination_deg": 97.2834,
      "raan_deg": 339.8438,
      "arg_perigee_deg": 120.7019,
      "mean_anomaly_deg": 239.4503,
      "mean_motion_rev_day": 15.75344132
    },
    {
      "epoch": "2026-04-04T15:44:14.800704Z",
      "apogee_km": 344.97654315602904,
      "perigee_km": 343.4519138973983,
      "latitude_deg": -1.229129198453985e-05,
      "longitude_deg": -88.12432842452382,
      "height_km": 346.8556619901078,
      "semi_major_axis_km": 6722.351228526713,
      "eccentricity": 0.0001134,
      "inclination_deg": 97.2835,
      "raan_deg": 340.9099,
      "arg_perigee_deg": 46.426,
      "mean_anomaly_deg": 313.7099,
      "mean_motion_rev_day": 15.75146536
    },
    {
      "epoch": "2026-04-05T14:36:26.615232Z",
      "apogee_km": 344.68066922599155,
      "perigee_km": 342.90460097780397,
      "latitude_deg": 9.160366921742544e-05,
      "longitude_deg": -71.11280565714131,
      "height_km": 347.1505776109447,
      "semi_major_axis_km": 6721.9296351018975,
      "eccentricity": 0.00013211,
      "inclination_deg": 97.2843,
      "raan_deg": 341.9099,
      "arg_perigee_deg": 102.4525,
      "mean_anomaly_deg": 257.6889,
      "mean_motion_rev_day": 15.75294726
    },
    {
      "epoch": "2026-04-05T16:07:55.485408Z",
      "apogee_km": 344.7960895187107,
      "perigee_km": 343.0631407453302,
      "latitude_deg": -4.067991208989366e-05,
      "longitude_deg": -93.97909799244974,
      "height_km": 346.88567147354996,
      "semi_major_axis_km": 6722.06661513202,
      "eccentricity": 0.0001289,
      "inclination_deg": 97.2844,
      "raan_deg": 341.9765,
      "arg_perigee_deg": 75.952,
      "mean_anomaly_deg": 284.1888,
      "mean_motion_rev_day": 15.75246575
    },
    {
      "epoch": "2026-04-06T04:19:45.962976Z",
      "apogee_km": 344.84850812288823,
      "perigee_km": 342.8011329915835,
      "latitude_deg": -5.823338338650598e-06,
      "longitude_deg": 83.0933457770521,
      "height_km": 346.8148693211428,
      "semi_major_axis_km": 6721.961820557236,
      "eccentricity": 0.00015229,
      "inclination_deg": 97.2849,
      "raan_deg": 342.5102,
      "arg_perigee_deg": 80.1028,
      "mean_anomaly_deg": 280.0409,
      "mean_motion_rev_day": 15.75283412
    },
    {
      "epoch": "2026-04-07T15:23:47.867136Z",
      "apogee_km": 344.2132906988527,
      "perigee_km": 342.96170559729853,
      "latitude_deg": -8.762303027026106e-06,
      "longitude_deg": -82.82175031355281,
      "height_km": 346.8989977544531,
      "semi_major_axis_km": 6721.724498148075,
      "eccentricity": 9.31e-05,
      "inclination_deg": 97.285,
      "raan_deg": 344.0432,
      "arg_perigee_deg": 103.3352,
      "mean_anomaly_deg": 256.8017,
      "mean_motion_rev_day": 15.7536684
    },
    {
      "epoch": "2026-04-08T15:47:28.468032Z",
      "apogee_km": 344.7914218831511,
      "perigee_km": 343.11143754279783,
      "latitude_deg": 4.0740474332398994e-05,
      "longitude_deg": -88.67468117851293,
      "height_km": 346.4365760354235,
      "semi_major_axis_km": 6722.088429712974,
      "eccentricity": 0.00012496,
      "inclination_deg": 97.2851,
      "raan_deg": 345.1113,
      "arg_perigee_deg": 35.7257,
      "mean_anomaly_deg": 324.4092,
      "mean_motion_rev_day": 15.75238907
    },
    {
      "epoch": "2026-04-09T16:11:08.707776Z",
      "apogee_km": 345.34811776972674,
      "perigee_km": 342.7762043707007,
      "latitude_deg": 2.7996879816566265e-05,
      "longitude_deg": -94.52959514567056,
      "height_km": 346.25284208173076,
      "semi_major_axis_km": 6722.199161070213,
      "eccentricity": 0.0001913,
      "inclination_deg": 97.285,
      "raan_deg": 346.1759,
      "arg_perigee_deg": 40.6651,
      "mean_anomaly_deg": 319.4757,
      "mean_motion_rev_day": 15.75199985
    },
    {
      "epoch": "2026-04-10T05:54:27.991584Z",
      "apogee_km": 345.40497811730074,
      "perigee_km": 342.7523918080142,
      "latitude_deg": 1.2360956098502461e-05,
      "longitude_deg": 59.67631263604461,
      "height_km": 346.9868686044285,
      "semi_major_axis_km": 6722.215684962657,
      "eccentricity": 0.0001973,
      "inclination_deg": 97.2856,
      "raan_deg": 346.7757,
      "arg_perigee_deg": 78.8309,
      "mean_anomaly_deg": 281.3178,
      "mean_motion_rev_day": 15.75194177
    },
    {
      "epoch": "2026-04-11T15:27:01.336608Z",
      "apogee_km": 344.81099584570984,
      "perigee_km": 343.2783384256036,
      "latitude_deg": -4.874462735122327e-05,
      "longitude_deg": -83.37386545875842,
      "height_km": 346.92848938974305,
      "semi_major_axis_km": 6722.181667135656,
      "eccentricity": 0.000114,
      "inclination_deg": 97.2849,
      "raan_deg": 348.242,
      "arg_perigee_deg": 68.3452,
      "mean_anomaly_deg": 291.7934,
      "mean_motion_rev_day": 15.75206134
    }
  ]
}